POLYTECH-UNIVERSE 3 (R*)
1 57191U 23091AB  26076.29299925  .00004499  00000+0  22257-3 0  9992
2 57191  97.5165 134.6862 0017404  90.1466 270.1763 15.18195654150007
SITRO-AIS 6 (CHIRKIN)   
1 57192U 23091AC  26076.26236214  .00005690  00000+0  23365-3 0  9997
2 57192  97.5174 138.9567 0014029  72.8097 287.4675 15.24526752150270
SITRO-AIS 8 (ANOKHIN)   
1 57193U 23091AD  26076.31676844  .00012521  00000+0  43796-3 0  9992
2 57193  97.5162 140.6897 0012187  69.0462 291.2081 15.29602799150399
SITRO-AIS 7 (FARTUSHNIY)
1 57194U 23091AE  26076.31380979  .00005061  00000+0  20977-3 0  9991
2 57194  97.5173 138.8765 0013914  73.5861 286.6905 15.24268337150278
AVION KALUGA 650        
1 57195U 23091AF  26076.31855669  .00005092  00000+0  24395-3 0  9997
2 57195  97.5204 136.2870 0012036  74.5064 285.7499 15.19322018150070
HORS 2                  
1 57196U 23091AG  26076.31797751  .00011181  00000+0  39297-3 0  9998
2 57196  97.5190 142.2201 0009385  56.7574 303.4564 15.29504091150470
A-SEANSAT-PG1           
1 57197U 23091AH  26076.31208559  .00013265  00000+0  40864-3 0  9999
2 57197  97.5178 144.1206 0008469  55.4628 304.7412 15.33719591150611
SITRO-AIS 10 (BURDAEV)  
1 57199U 23091AK  26076.31490117  .00015988  00000+0  47114-3 0  9993
2 57199  97.5177 144.8706 0007630  51.6175 308.5752 15.35087116150654
2023-091AL              
1 57200U 23091AL  26076.29343981  .00023232  00000+0  56745-3 0  9990
2 57200  97.5149 147.7806 0006698  37.4031 322.7681 15.40822342150838
SITRO-AIS 9 (SHCHUKIN)  
1 57201U 23091AM  26076.31500472  .00013974  00000+0  41724-3 0  9997
2 57201  97.5176 144.6655 0007868  51.2334 308.9610 15.34701846150642
CSTP 1.1 (STC 1.1)      
1 57202U 23091AN  26076.29253400  .00004675  00000+0  23172-3 0  9996
2 57202  97.5230 135.6282 0011116  73.2012 287.0440 15.18186988150013
UTMN 2 (RS27S)          
1 57203U 23091AP  26076.29148954  .00009925  00000+0  34696-3 0  9990
2 57203  97.5189 142.3598 0009253  53.4427 306.7664 15.29716480150487
SITRO-AIS 12 (SMIRENNIY)
1 57204U 23091AQ  26076.32209144  .00014599  00000+0  43238-3 0  9999
2 57204  97.5187 145.0854 0007400  46.5506 313.6351 15.34951539150666
2023-091AS              
1 57206U 23091AS  26076.28994834  .00044847  00000+0  75231-3 0  9990
2 57206  97.5138 151.2730 0003618  26.6571 333.4866 15.51683184151090
SITRO-AIS 11 (SHEFFER)  
1 57208U 23091AU  26076.29355304  .00014432  00000+0  42275-3 0  9995
2 57208  97.5185 145.2505 0007303  46.5591 313.6259 15.35301851150674
H2SAT (HEINRICH HERTZ)  
1 57213U 23093A   26076.27844458  .00000002  00000+0  00000+0 0  9998
2 57213   0.0334 279.1668 0001021 192.6891 163.9227  1.00271036  9996
SYRACUSE 4B             
1 57214U 23093B   26075.92050484 -.00000054  00000+0  00000+0 0  9996
2 57214   0.0167 165.0656 0000230 253.7347  80.6032  1.00271492  6045
KUZGTU 1 (RS47S)        
1 57217U 23091AV  26076.26904470  .00009679  00000+0  35960-3 0  9996
2 57217  97.5171 139.9186 0012563  66.2855 293.9701 15.27690230150338
STARLINK-5525           
1 57218U 23094A   26076.25002315  .00057016  00000+0  21198-2 0  9991
2 57218  43.0010 347.5861 0001275 267.5540 212.2068 15.26724892  5621
STARLINK-5520           
1 57219U 23094B   26076.25002315  .00077196  00000+0  50469-2 0  9996
2 57219  43.0013 349.5489 0002328 224.7502 140.8631 15.06862842  5624
STARLINK-5880           
1 57220U 23094C   26076.25002315  .00082460  00000+0  52649-2 0  9990
2 57220  43.0008 349.3124 0002455 278.2456 185.6497 15.07700532  5789
STARLINK-5875           
1 57221U 23094D   26076.25002315  .00084820  00000+0  55043-2 0  9994
2 57221  43.0014 349.5046 0001425 282.4340 101.6459 15.07088242  5724
STARLINK-5870           
1 57222U 23094E   26076.25002315  .00057452  00000+0  21362-2 0  9993
2 57222  43.0009 347.6052 0001421 260.0964 209.7355 15.26718459  5787
STARLINK-5519           
1 57223U 23094F   26076.25002315  .00082346  00000+0  51856-2 0  9995
2 57223  43.0003 349.4361 0002026 258.4308 154.3606 15.08208605  5736
STARLINK-5983           
1 57224U 23094G   26076.25002315  .00056091  00000+0  20861-2 0  9996
2 57224  43.0006 347.6738 0001306 268.2776 172.5273 15.26721330  5788
STARLINK-6294           
1 57225U 23094H   26076.25002315  .00094927  00000+0  40321-2 0  9990
2 57225  43.0005 348.2434 0000740 287.5839 268.5298 15.22032941  5729
STARLINK-6350           
1 57226U 23094J   26076.25002315  .00086294  00000+0  37109-2 0  9999
2 57226  43.0004 347.9909 0001446 252.4347  49.4022 15.21662827  5688
STARLINK-5996           
1 57227U 23094K   26076.25002315  .00082355  00000+0  53911-2 0  9993
2 57227  43.0008 349.3038 0002523 282.1785 184.8299 15.06781705  5786
STARLINK-6230           
1 57228U 23094L   26076.25002315  .00057971  00000+0  21552-2 0  9996
2 57228  43.0012 347.4738 0001502 264.3101 257.9688 15.26720215  5783
STARLINK-6233           
1 57229U 23094M   26076.25002315  .00086415  00000+0  35975-2 0  9996
2 57229  43.0002 347.8704 0001729 250.0051 103.0726 15.22761531  5783
STARLINK-6250           
1 57230U 23094N   26076.25002315  .00084187  00000+0  35987-2 0  9995
2 57230  43.0003 347.8101 0001885 248.7819 128.9657 15.21877968  5775
STARLINK-5840           
1 57231U 23094P   26076.25002315  .00089012  00000+0  41180-2 0  9990
2 57231  43.0006 347.7514 0001798 291.8418 111.6772 15.19141929  5778
STARLINK-5872           
1 57232U 23094Q   26076.25002315  .00085477  00000+0  38966-2 0  9990
2 57232  43.0006 347.8200 0001858 261.8881 109.9891 15.19670919  5778
STARLINK-5866           
1 57233U 23094R   26076.25002315  .00090209  00000+0  38634-2 0  9992
2 57233  43.0000 347.6106 0001584 290.0706 171.1386 15.21779230  5771
STARLINK-6368           
1 57234U 23094S   26076.25002315  .01358845  00000+0  49088-1 0  9991
2 57234  43.0012 347.5265 0001118 267.1709 229.3058 15.25048984  5772
STARLINK-6360           
1 57235U 23094T   26076.25002315  .00090583  00000+0  38622-2 0  9996
2 57235  43.0001 347.6235 0001246 295.1912 160.8001 15.21928217  5722
STARLINK-6315           
1 57236U 23094U   26076.25002315  .00070112  00000+0  37531-2 0  9991
2 57236  43.0001 336.3073 0001584 253.8862 212.9569 15.14150624  5727
STARLINK-6365           
1 57237U 23094V   26076.25002315  .00126699  00000+0  52376-2 0  9998
2 57237  43.0015 347.5535 0000925 300.6215 186.6461 15.22782270  5771
STARLINK-6334           
1 57238U 23094W   26076.25002315  .00067549  00000+0  38980-2 0  9992
2 57238  43.0001 336.4393 0001844 255.3823 153.3220 15.11480830  5474
STARLINK-6330           
1 57239U 23094X   26076.25002315  .00125014  00000+0  50452-2 0  9993
2 57239  43.0002 347.3265 0001099 239.0033 343.2709 15.23600857  5589
STARLINK-6351           
1 57240U 23094Y   26076.25002315  .00061948  00000+0  31318-2 0  9990
2 57240  43.0004 335.8626 0001129 288.0928   2.3069 15.16225060  5771
STARLINK-6349           
1 57241U 23094Z   26076.25002315  .00070230  00000+0  37407-2 0  9990
2 57241  43.0006 336.2585 0001616 257.0600 229.4503 15.14327099  5775
STARLINK-6306           
1 57242U 23094AA  26076.25002315  .00069385  00000+0  37572-2 0  9993
2 57242  43.0002 336.2833 0001666 258.1983 215.0168 15.13746011  5775
STARLINK-6346           
1 57243U 23094AB  26076.25002315  .00070263  00000+0  38553-2 0  9991
2 57243  42.9996 336.3313 0001774 257.6316 197.8437 15.13270024  5776
STARLINK-5610           
1 57244U 23094AC  26076.25002315  .00063232  00000+0  31917-2 0  9997
2 57244  43.0006 335.9492 0002232 236.6603  19.9695 15.16270142  5628
STARLINK-5587           
1 57245U 23094AD  26076.25002315  .00067583  00000+0  39364-2 0  9995
2 57245  42.9996 336.3935 0001965 254.8787 171.9177 15.11144218  5778
STARLINK-5049           
1 57246U 23094AE  26076.25002315  .00065047  00000+0  34219-2 0  9993
2 57246  43.0014 335.7449 0001396 282.0086  56.6884 15.14801987  5778
STARLINK-5039           
1 57247U 23094AF  26076.25002315  .00065893  00000+0  35385-2 0  9998
2 57247  43.0003 336.0909 0001120 272.5557 282.5053 15.14066594  5724
STARLINK-5514           
1 57248U 23094AG  26076.25002315  .00064624  00000+0  34977-2 0  9996
2 57248  43.0002 336.0434 0000895 297.5652 277.6715 15.13795922  5732
STARLINK-5517           
1 57249U 23094AH  26076.25002315  .00064029  00000+0  34718-2 0  9999
2 57249  42.9997 335.9457 0001005 304.3611 287.9146 15.13734653  5739
STARLINK-5488           
1 57250U 23094AJ  26076.25002315  .00062308  00000+0  35159-2 0  9999
2 57250  43.0000 336.0015 0000902 302.7347 289.5855 15.12322959  5784
STARLINK-5513           
1 57251U 23094AK  26076.25002315  .00062485  00000+0  33282-2 0  9991
2 57251  43.0003 335.8978 0001032 292.2544 344.1766 15.14380019  5737
STARLINK-5511           
1 57252U 23094AL  26076.25002315  .00062904  00000+0  34150-2 0  9993
2 57252  43.0008 335.8120 0001451 291.0659  19.9098 15.13699518  5776
STARLINK-5516           
1 57253U 23094AM  26076.25002315  .00064091  00000+0  34895-2 0  9999
2 57253  42.9997 335.9896 0000910 285.9276 311.2512 15.13587774  5734
STARLINK-5490           
1 57254U 23094AN  26076.25002315  .00062680  00000+0  34265-2 0  9993
2 57254  43.0008 335.7709 0001035 290.1060  36.4593 15.13453651  5471
STARLINK-5481           
1 57255U 23094AP  26076.25002315  .00064619  00000+0  35226-2 0  9996
2 57255  43.0009 335.7842 0001112 260.2417  63.0683 15.13540457  5524
STARLINK-5512           
1 57256U 23094AQ  26075.00698227  .00048027  00000+0  35096-2 0  9992
2 57256  43.0043 342.7232 0002175 287.0262  73.0342 15.02925192148228
STARLINK-5503           
1 57257U 23094AR  26076.25002315  .00062880  00000+0  36172-2 0  9997
2 57257  43.0001 336.0219 0000842 299.6551 283.0899 15.11626043  5789
STARLINK-5476           
1 57258U 23094AS  26076.25002315  .00062030  00000+0  34955-2 0  9992
2 57258  43.0008 335.8118 0001089 287.8717  22.2651 15.12373453  5671
